start=new Date('2022-10-23T00:00:00.000Z').valueOf();
sats=[{"REF_FRAME":"TEME","FILE":"3629561","NORAD_CAT_ID":"49162","MEAN_ANOMALY":"100.1171","MEAN_MOTION":"14.98303000","OBJECT_NAME":"STARLINK-3082","PERIAPSIS":"569.857","APOAPSIS":"574.426","CENTER_NAME":"EARTH","BSTAR":"0.00307920000000","TLE_LINE2":"2 49162  70.0013 165.4848 0003287 259.9617 100.1171 14.98303000 62322","CLASSIFICATION_TYPE":"U","ECCENTRICITY":"0.00032870","RA_OF_ASC_NODE":"165.4848","TIME_SYSTEM":"UTC","OBJECT_TYPE":"PAYLOAD","DECAY_DATE":null,"SITE":"AFWTR","COUNTRY_CODE":"US","GP_ID":"215897956","RCS_SIZE":"LARGE","REV_AT_EPOCH":"6232","EPOCH":"2022-10-22T19:35:19.440672","LAUNCH_DATE":"2021-09-14","ARG_OF_PERICENTER":"259.9617","INCLINATION":"70.0013","EPHEMERIS_TYPE":"0","PERIOD":"96.109","ELEMENT_SET_NO":"999","TLE_LINE1":"1 49162U 21082AJ  22295.81619723  .00036816  00000-0  30792-2 0  9999","SEMIMAJOR_AXIS":"6950.276","MEAN_MOTION_DDOT":"0.0000000000000","OBJECT_ID":"2021-082AJ","MEAN_MOTION_DOT":"0.00036816","MEAN_ELEMENT_THEORY":"SGP4"},{"CENTER_NAME":"EARTH","APOAPSIS":"574.146","REF_FRAME":"TEME","PERIAPSIS":"569.912","OBJECT_NAME":"STARLINK-3088","MEAN_ANOMALY":"102.0962","MEAN_MOTION":"14.98339262","NORAD_CAT_ID":"49163","FILE":"3629797","GP_ID":"215926102","COUNTRY_CODE":"US","DECAY_DATE":null,"SITE":"AFWTR","OBJECT_TYPE":"PAYLOAD","EPOCH":"2022-10-22T20:32:13.919424","REV_AT_EPOCH":"6281","RCS_SIZE":"LARGE","TLE_LINE2":"2 49163  69.9999 145.3934 0003046 257.9856 102.0962 14.98339262 62814","BSTAR":"0.00007982400000","RA_OF_ASC_NODE":"145.3934","TIME_SYSTEM":"UTC","ECCENTRICITY":"0.00030460","CLASSIFICATION_TYPE":"U","PERIOD":"96.106","EPHEMERIS_TYPE":"0","SEMIMAJOR_AXIS":"6950.164","ELEMENT_SET_NO":"999","TLE_LINE1":"1 49163U 21082AK  22295.85571666  .00000860  00000-0  79824-4 0  9998","INCLINATION":"69.9999","ARG_OF_PERICENTER":"257.9856","LAUNCH_DATE":"2021-09-14","OBJECT_ID":"2021-082AK","MEAN_MOTION_DOT":"0.00000860","MEAN_ELEMENT_THEORY":"SGP4","MEAN_MOTION_DDOT":"0.0000000000000"},{"APOAPSIS":"574.363","CENTER_NAME":"EARTH","MEAN_ANOMALY":"108.3650","MEAN_MOTION":"14.98339575","PERIAPSIS":"569.694","OBJECT_NAME":"STARLINK-3106","FILE":"3629797","NORAD_CAT_ID":"49164","REF_FRAME":"TEME","EPOCH":"2022-10-22T20:18:29.876832","RCS_SIZE":"LARGE","REV_AT_EPOCH":"6282","GP_ID":"215926853","COUNTRY_CODE":"US","DECAY_DATE":null,"SITE":"AFWTR","OBJECT_TYPE":"PAYLOAD","RA_OF_ASC_NODE":"145.4106","TIME_SYSTEM":"UTC","CLASSIFICATION_TYPE":"U","ECCENTRICITY":"0.00033590","BSTAR":"0.00005204900000","TLE_LINE2":"2 49164  69.9986 145.4106 0003359 251.7144 108.3650 14.98339575 62823","SEMIMAJOR_AXIS":"6950.163","ELEMENT_SET_NO":"999","TLE_LINE1":"1 49164U 21082AL  22295.84617913  .00000528  00000-0  52049-4 0  9995","PERIOD":"96.106","EPHEMERIS_TYPE":"0","INCLINATION":"69.9986","LAUNCH_DATE":"2021-09-14","ARG_OF_PERICENTER":"251.7144","MEAN_ELEMENT_THEORY":"SGP4","MEAN_MOTION_DOT":"0.00000528","OBJECT_ID":"2021-082AL","MEAN_MOTION_DDOT":"0.0000000000000"},{"PERIOD":"96.107","EPHEMERIS_TYPE":"0","SEMIMAJOR_AXIS":"6950.178","TLE_LINE1":"1 49165U 21082AM  22295.87823370  .00001002  00000-0  91743-4 0  9997","ELEMENT_SET_NO":"999","INCLINATION":"70.0002","ARG_OF_PERICENTER":"251.2521","LAUNCH_DATE":"2021-09-14","OBJECT_ID":"2021-082AM","MEAN_MOTION_DOT":"0.00001002","MEAN_ELEMENT_THEORY":"SGP4","MEAN_MOTION_DDOT":"0.0000000000000","CENTER_NAME":"EARTH","APOAPSIS":"574.137","REF_FRAME":"TEME","OBJECT_NAME":"STARLINK-3052","PERIAPSIS":"569.948","MEAN_ANOMALY":"108.8311","MEAN_MOTION":"14.98334973","NORAD_CAT_ID":"49165","FILE":"3629797","COUNTRY_CODE":"US","GP_ID":"215927104","OBJECT_TYPE":"PAYLOAD","DECAY_DATE":null,"SITE":"AFWTR","EPOCH":"2022-10-22T21:04:39.391680","RCS_SIZE":"LARGE","REV_AT_EPOCH":"6236","TLE_LINE2":"2 49165  70.0002 165.3305 0003013 251.2521 108.8311 14.98334973 62364","BSTAR":"0.00009174300000","RA_OF_ASC_NODE":"165.3305","TIME_SYSTEM":"UTC","ECCENTRICITY":"0.00030130","CLASSIFICATION_TYPE":"U"},{"APOAPSIS":"574.089","CENTER_NAME":"EARTH","PERIAPSIS":"569.951","OBJECT_NAME":"STARLINK-3089","MEAN_ANOMALY":"103.3923","MEAN_MOTION":"14.98342343","NORAD_CAT_ID":"49166","FILE":"3629797","REF_FRAME":"TEME","EPOCH":"2022-10-22T20:25:21.050976","RCS_SIZE":"LARGE","REV_AT_EPOCH":"6285","COUNTRY_CODE":"US","GP_ID":"215927855","OBJECT_TYPE":"PAYLOAD","DECAY_DATE":null,"SITE":"AFWTR","TIME_SYSTEM":"UTC","RA_OF_ASC_NODE":"145.3964","ECCENTRICITY":"0.00029770","CLASSIFICATION_TYPE":"U","TLE_LINE2":"2 49166  70.0001 145.3964 0002977 256.6904 103.3923 14.98342343 62858","BSTAR":"0.00004540900000","SEMIMAJOR_AXIS":"6950.155","ELEMENT_SET_NO":"999","TLE_LINE1":"1 49166U 21082AN  22295.85093809  .00000449  00000-0  45409-4 0  9994","PERIOD":"96.106","EPHEMERIS_TYPE":"0","INCLINATION":"70.0001","ARG_OF_PERICENTER":"256.6904","LAUNCH_DATE":"2021-09-14","MEAN_ELEMENT_THEORY":"SGP4","OBJECT_ID":"2021-082AN","MEAN_MOTION_DOT":"0.00000449","MEAN_MOTION_DDOT":"0.0000000000000"},{"RA_OF_ASC_NODE":"165.3426","TIME_SYSTEM":"UTC","CLASSIFICATION_TYPE":"U","ECCENTRICITY":"0.00033420","BSTAR":"0.00002222400000","TLE_LINE2":"2 49167  70.0009 165.3426 0003342 228.6772 131.4100 14.98326802 62368","EPOCH":"2022-10-22T20:57:47.185056","RCS_SIZE":"LARGE","REV_AT_EPOCH":"6236","COUNTRY_CODE":"US","GP_ID":"215926603","OBJECT_TYPE":"PAYLOAD","DECAY_DATE":null,"SITE":"AFWTR","MEAN_ANOMALY":"131.4100","MEAN_MOTION":"14.98326802","PERIAPSIS":"569.745","OBJECT_NAME":"STARLINK-3054","FILE":"3629797","NORAD_CAT_ID":"49167","REF_FRAME":"TEME","APOAPSIS":"574.391","CENTER_NAME":"EARTH","MEAN_MOTION_DDOT":"0.0000000000000","MEAN_ELEMENT_THEORY":"SGP4","MEAN_MOTION_DOT":"0.00000172","OBJECT_ID":"2021-082AP","INCLINATION":"70.0009","LAUNCH_DATE":"2021-09-14","ARG_OF_PERICENTER":"228.6772","SEMIMAJOR_AXIS":"6950.203","TLE_LINE1":"1 49167U 21082AP  22295.87346279  .00000172  00000-0  22224-4 0  9992","ELEMENT_SET_NO":"999","PERIOD":"96.107","EPHEMERIS_TYPE":"0"},{"GP_ID":"215926353","COUNTRY_CODE":"US","SITE":"AFWTR","DECAY_DATE":null,"OBJECT_TYPE":"PAYLOAD","EPOCH":"2022-10-22T20:04:47.336736","RCS_SIZE":"LARGE","REV_AT_EPOCH":"6285","BSTAR":"0.00012858000000","TLE_LINE2":"2 49168  69.9982 145.4331 0003035 253.6613 106.4212 14.98327473 62856","RA_OF_ASC_NODE":"145.4331","TIME_SYSTEM":"UTC","CLASSIFICATION_TYPE":"U","ECCENTRICITY":"0.00030350","APOAPSIS":"574.175","CENTER_NAME":"EARTH","REF_FRAME":"TEME","MEAN_ANOMALY":"106.4212","MEAN_MOTION":"14.98327473","PERIAPSIS":"569.956","OBJECT_NAME":"STARLINK-3101","FILE":"3629797","NORAD_CAT_ID":"49168","OBJECT_ID":"2021-082AQ","MEAN_MOTION_DOT":"0.00001441","MEAN_ELEMENT_THEORY":"SGP4","MEAN_MOTION_DDOT":"0.0000000000000","PERIOD":"96.107","EPHEMERIS_TYPE":"0","SEMIMAJOR_AXIS":"6950.201","ELEMENT_SET_NO":"999","TLE_LINE1":"1 49168U 21082AQ  22295.83665899  .00001441  00000-0  12858-3 0  9992","INCLINATION":"69.9982","LAUNCH_DATE":"2021-09-14","ARG_OF_PERICENTER":"253.6613"},{"MEAN_ELEMENT_THEORY":"SGP4","MEAN_MOTION_DOT":"0.00001699","OBJECT_ID":"2021-082AR","MEAN_MOTION_DDOT":"0.0000000000000","SEMIMAJOR_AXIS":"6950.166","ELEMENT_SET_NO":"999","TLE_LINE1":"1 49169U 21082AR  22295.84140774  .00001699  00000-0  15008-3 0  9999","PERIOD":"96.106","EPHEMERIS_TYPE":"0","INCLINATION":"69.9986","LAUNCH_DATE":"2021-09-14","ARG_OF_PERICENTER":"252.2400","EPOCH":"2022-10-22T20:11:37.628736","REV_AT_EPOCH":"6165","RCS_SIZE":"LARGE","GP_ID":"215927605","COUNTRY_CODE":"US","DECAY_DATE":null,"OBJECT_TYPE":"PAYLOAD","SITE":"AFWTR","TIME_SYSTEM":"UTC","RA_OF_ASC_NODE":"145.4244","CLASSIFICATION_TYPE":"U","ECCENTRICITY":"0.00031270","BSTAR":"0.00015008000000","TLE_LINE2":"2 49169  69.9986 145.4244 0003127 252.2400 107.8418 14.98338543 61655","APOAPSIS":"574.205","CENTER_NAME":"EARTH","MEAN_ANOMALY":"107.8418","MEAN_MOTION":"14.98338543","PERIAPSIS":"569.858","OBJECT_NAME":"STARLINK-3046","FILE":"3629797","NORAD_CAT_ID":"49169","REF_FRAME":"TEME"},{"PERIOD":"96.107","EPHEMERIS_TYPE":"0","SEMIMAJOR_AXIS":"6950.213","TLE_LINE1":"1 49170U 21082AS  22295.91434761 -.00000918  00000-0 -69139-4 0  9991","ELEMENT_SET_NO":"999","INCLINATION":"70.0003","LAUNCH_DATE":"2021-09-14","ARG_OF_PERICENTER":"248.9153","OBJECT_ID":"2021-082AS","MEAN_MOTION_DOT":"-0.00000918","MEAN_ELEMENT_THEORY":"SGP4","MEAN_MOTION_DDOT":"0.0000000000000","APOAPSIS":"574.362","CENTER_NAME":"EARTH","REF_FRAME":"TEME","MEAN_ANOMALY":"111.1655","MEAN_MOTION":"14.98323452","PERIAPSIS":"569.794","OBJECT_NAME":"STARLINK-3074","FILE":"3629797","NORAD_CAT_ID":"49170","GP_ID":"215927355","COUNTRY_CODE":"US","DECAY_DATE":null,"SITE":"AFWTR","OBJECT_TYPE":"PAYLOAD","EPOCH":"2022-10-22T21:56:39.633504","REV_AT_EPOCH":"6117","RCS_SIZE":"LARGE","BSTAR":"-0.00006913900000","TLE_LINE2":"2 49170  70.0003 165.2302 0003286 248.9153 111.1655 14.98323452 61179","RA_OF_ASC_NODE":"165.2302","TIME_SYSTEM":"UTC","CLASSIFICATION_TYPE":"U","ECCENTRICITY":"0.00032860"},{"OBJECT_ID":"2021-082AT","MEAN_MOTION_DOT":"0.00001445","MEAN_ELEMENT_THEORY":"SGP4","MEAN_MOTION_DDOT":"0.0000000000000","EPHEMERIS_TYPE":"0","PERIOD":"96.106","TLE_LINE1":"1 49171U 21082AT  22295.86664675  .00001445  00000-0  12884-3 0  9993","ELEMENT_SET_NO":"999","SEMIMAJOR_AXIS":"6950.146","LAUNCH_DATE":"2021-09-14","ARG_OF_PERICENTER":"253.9316","INCLINATION":"69.9986","DECAY_DATE":null,"SITE":"AFWTR","OBJECT_TYPE":"PAYLOAD","GP_ID":"215926103","COUNTRY_CODE":"US","RCS_SIZE":"LARGE","REV_AT_EPOCH":"6232","EPOCH":"2022-10-22T20:47:58.279200","BSTAR":"0.00012884000000","TLE_LINE2":"2 49171  69.9986 165.3515 0003075 253.9316 106.1505 14.98345044 62324","CLASSIFICATION_TYPE":"U","ECCENTRICITY":"0.00030750","TIME_SYSTEM":"UTC","RA_OF_ASC_NODE":"165.3515","CENTER_NAME":"EARTH","APOAPSIS":"574.149","REF_FRAME":"TEME","FILE":"3629797","NORAD_CAT_ID":"49171","MEAN_MOTION":"14.98345044","MEAN_ANOMALY":"106.1505","OBJECT_NAME":"STARLINK-3107","PERIAPSIS":"569.874"}];
